#dP2023  6 16 18  0  0.00000000      96 __u+U ITR00 EXT  IAC
## 2266 496800.00000000   900.00000000 60111 0.7500000000000
+  118   C06C07C08C09C10C11C12C14C16C19C20C21C22C23C24C25C26
+        C27C28C29C30C32C33C34C35C36C37C38C39C40C41C42C43C44
+        C45C46E02E03E04E05E07E08E09E10E11E12E13E14E15E18E19
+        E21E24E25E26E27E30E31E33E34E36G01G02G03G04G05G06G07
+        G08G09G10G11G12G13G14G15G16G17G18G19G20G21G22G23G24
+        G25G26G27G28G29G30G31G32J02J03J04R01R02R03R04R05R07
+        R08R09R11R12R13R14R15R16R17R18R19R20R21R22R24R25  0
++         9 10  9  9 10  9  7  9  9  9  8  7  7  8  7  7  8
++         8  7  9  9  9  9  8  7  7  7 10  9 10  8  7  8  8
++         9  8  8  7  7  7  7  7  7  7  8  8  7  8  8  7  9
++         8  8  8  7  7  8  7  8  8  7  7  7  7  8  6  6  6
++         7  7  7  7  7  8  7  7  7  7  7  7  7  7  6  6  7
++         7  7  6  7  7  7  7  7  9  9 10  8  8  8  7  7  8
++         9  8  7  7  9  8  8  8  8  8  9  9  7  8  6  8  0
%c M  cc GPS ccc cccc cccc cccc cccc ccccc ccccc ccccc ccccc
%c cc cc ccc ccc cccc cccc cccc cccc ccccc ccccc ccccc ccccc
%f  0.0000000  0.000000000  0.00000000000  0.000000000000000
%f  0.0000000  0.000000000  0.00000000000  0.000000000000000
%i    0    0    0    0      0      0      0      0         0
%i    0    0    0    0      0      0      0      0         0
/* IAC                                ULTRA-RAPID PREDICTION
/* S/V CLOCKS ARE ALIGNED TO GNSS TIME                      
/* G:C1WC2W R:C1PC2P E:C1XC5X C:C2IC6I J:C1CC2S             
/* PCV:IGS20_2247 OL/AL:FES2004  NONE     YN ORB:CoN CLK:CoN
*  2023 06 17  9 15  0.00000000
PC06 -17999.022658  36305.300959 -12113.741492   -176.483581
PC07  -2411.167399  35431.945315 -22548.755822   -185.300761
PC08  -8414.647849  19469.294744  36419.339729    456.840072
PC09 -11219.318587  35054.846092 -20629.233235    524.363455
PC10   4196.387446  37756.138280 -17383.713947    -88.389498
PC11  15738.335411   2618.614525  22957.649615    678.562190
PC12   3917.306502  20143.675166  18935.729999    719.070548
PC14  20451.442136  11859.188134 -14760.698899    423.023433
PC16 -19463.607738  36071.804114 -10300.181634     40.000346
PC19 -18673.806413  -2384.582695  20634.306591   -924.528907
PC20 -19388.412121 -18368.582376   8168.645433    497.517822
PC21   8334.769981  24539.827869  10321.088513   -924.322407
PC22  -7183.923023  15795.781922  21845.720794   -437.096371
PC23  18988.808966 -12939.238765  15844.818891   -960.591296
PC24  20188.666785  10253.190489 -16330.039391     71.959065
PC25  27726.205087  -3208.576768    525.677516    149.122195
PC26   2467.488294  16128.771313 -22651.209272   -135.944580
PC27   2194.702053 -24710.324646 -12795.366965    156.405631
PC28  14152.543060 -23843.808714   3176.512506    116.212742
PC29 -18419.787640   8535.031838 -19156.803896    135.180323
PC30 -11548.680897 -12306.112504 -22232.900302     -1.277217
PC32  -8511.424623 -24484.984459 -10345.454339   -547.967752
PC33  18712.427865   2325.002031 -20559.425754   -896.726088
PC34  12341.998144  11026.460367  22454.089073    194.977151
PC35 -13601.433027  24103.762054  -3739.398266    606.293631
PC36 -27829.351849   2032.448887    229.830767   -378.585539
PC37   -769.838955 -16292.945887  22660.031278   -786.090131
PC38 -17005.427751  19928.709094  33038.968005     85.675838
PC39 -20792.477195  36478.994897  -4976.724899     -3.354969
PC40  -5637.063388  32504.322400 -26131.019685    -26.501848
PC41   7644.756241 -15321.329316 -21985.882374   -919.557895
PC42  18987.167456  19248.680531  -6798.128169   -646.203432
PC43  18440.596473  -7560.674452  19510.862173     26.580546
PC44  -1396.993218  24902.595058  12527.932291    140.764089
PC45 -18568.170848  13026.998064 -16239.032086   -111.394752
PC46 -21284.986310  -9403.882607  15381.546835    -62.148001
PE02  21213.574490  18419.859152  -9339.927677     44.542826
PE03  11879.690403  22263.122993 -15456.497414    -27.206934
PE04 -17044.759450  -2346.752097  24098.195231   -146.668389
PE05   -363.249150  29495.560935   2429.470309    -57.212097
PE07  12387.766057 -19149.948525 -18864.973272    -53.292396
PE08  16891.700109   2706.666094 -24149.105890   -100.319779
PE09 -12341.918281  18977.942568  19068.213790    -53.097821
PE10 -26266.464426  12099.548687  -6318.877005   -541.838772
PE11 -23116.547408  18013.356268   4200.560581   2245.196879
PE12 -25190.212543   4704.864168 -14841.449441   -583.090388
PE13  23443.677944 -17725.267769  -3494.490950    -19.283481
PE14   4190.256929 -29922.329957   3299.466447    256.512341
PE15  25026.064125  -4495.846253  15146.673530    -30.117181
PE18 -10984.786626  20990.077284 -11476.027934    191.739835
PE19 -10391.615259 -24214.373110  13499.934173  -2280.378223
PE21  -3955.786119 -19225.831794  22157.907279   -535.487540
PE24 -17194.073315   8498.140902 -22553.676040   -159.680537
PE25   3583.051314  19134.340903 -22291.989849   -606.895354
PE26   7357.761151 -20355.262818 -20195.772749    136.596495
PE27  16564.123075  -9004.066074  22824.084744    -76.785222
PE30  27157.600073   6889.503057   9553.594429   -262.353270
PE31 -27098.627301  -6414.289877 -10029.353274   -526.068661
PE33 -11830.077587 -11269.578929 -24686.860260   -443.052560
PE34  11985.410257  11141.462448  24653.234155    -51.270373
PE36  -8176.362993  20401.674589  19825.355651    -72.528551
PG01   7107.230983 -17931.390794 -18436.958598    177.878194
PG02  12286.064415 -19394.348513 -12722.063423   -584.988521
PG03  -4156.538102 -17537.347204 -19687.173654   -267.378343
PG04    234.279520 -26489.799020    606.399806     70.626759
PG05 -12810.325054   9739.969461  20973.178008   -131.433111
PG06 -22713.556437   2863.523363 -13490.871252    584.567235
PG07  -9438.759065 -12602.178594  21875.588942    150.041221
PG08   6944.686524 -22862.872130  11094.823919   -127.808248
PG09  -7691.795736 -23391.245084   9827.141752   -133.785136
PG10  24113.343822  10979.313673  -3362.152034    -41.511554
PG11 -23265.964674  12746.753993    715.957542   -238.914357
PG12   -387.252727  16944.445787 -20745.712754   -389.630057
PG13 -12984.939398  16809.108791  15634.269866    535.140280
PG14 -23055.022270 -13338.727427   -759.626417     93.361276
PG15  -3838.413257  23981.936527   9978.575999     49.637833
PG16  16885.104822  -4960.199313  19721.995783   -490.605592
PG17 -13209.373993 -10225.800026 -20196.551932    718.636188
PG18  11749.967614  10187.508766  21550.133073   -310.907277
PG19 -14940.015793  -1866.951736 -22103.673320    331.720988
PG20 -20517.014921   4849.089060  16073.449748    427.550271
PG21  14378.018981 -19001.266922 -10212.353413    153.031145
PG22  15042.551637  -2366.693837 -21295.428320    499.175157
PG23  19150.448620  16521.244977   8370.733745     34.008441
PG24  -9716.075593  20100.507660 -14424.040111   -227.734383
PG25  12630.968599  18694.750607 -14536.314787    450.353092
PG26  24009.653441   2107.277657  11415.439879    238.845807
PG27  12724.758236 -13317.512938  18727.000725     14.814696
PG28  21947.617173  -1668.235160 -14883.358466     83.377479
PG29   3969.469892  24851.278561   8287.802221   -603.057275
PG30 -18471.675727  -5160.785652  18595.639141   -510.480022
PG31  24467.606872  -9974.015529  -4591.367176   -218.330933
PG32  14693.622178   7207.401084 -20776.137666   -502.062566
PJ02 -26110.150438  15836.503986 -24465.548765     -0.596002
PJ03 -26798.437369  32634.133452   2530.842199      6.744810
PJ04 -26171.161346  26313.649212  25992.907996     95.499871
PR01  -7914.699588 -23449.107387  -6211.630530     59.594313
PR02 -13862.427012 -17668.807829  12083.431641    -22.697745
PR03 -12190.687646  -1402.455552  22402.366042     79.829628
PR04  -3706.239641  15064.828119  20281.967629    191.527537
PR05   6614.853073  23591.352068   7148.486559    114.299042
PR07  11913.638110    683.222041 -22508.459083     58.216720
PR08   3550.663485 -15273.580250 -20049.240960    -71.308799
PR09  21483.620160   7360.965572 -11512.462188    126.261396
PR11  15226.179750  -7674.191561  18977.142282    -81.763935
PR12  -5189.267283 -11254.197311  22321.828481     28.218097
PR13 -20216.825553  -8136.410324  13248.448182    -36.189206
PR14 -24903.002553    415.103949  -5546.100563     24.810027
PR15 -14185.003101   8056.650184 -19589.643737     88.532734
PR16   4917.743860  11060.373651 -22434.764777     15.723400
PR17 -16686.714552  10070.603959 -16431.469638    639.765517
PR18 -15719.636331  20087.730581  -1168.630893     87.028501
PR19  -8193.568482  19985.565271  13557.484943   -236.574902
PR20   7592.242822   7090.193320  23297.851755    -94.897015
PR21  16997.628448 -11170.908428  15403.845762    -15.874265
PR22  16057.725815 -19810.423979    236.991726     81.644015
PR24  -8652.795807  -6529.198766 -23080.577124    -12.248789
PR25  17298.763217  -9108.356500  16396.751029     59.140807
EOF
